CAS-2T & KS-1Q          
1 41847U 16066G   20230.85312493  .00000029  00000-0  14194-4 0  9999
2 41847  98.6492 281.9674 0366384  46.1029 316.9799 14.38085089198247
NAYIF-1 (EO-88)         
1 42017U 17008BX  20230.90254150  .00001136  00000-0  46049-4 0  9991
2 42017  97.3560 297.5602 0007915 102.5440 257.6684 15.26647645194924
MAX VALIER SAT          
1 42778U 17036P   20230.72152464  .00000683  00000-0  32183-4 0  9991
2 42778  97.3002 282.6492 0012815 159.2394 200.9366 15.22711877175059
RADFXSAT (FOX-1B)       
1 43017U 17073E   20230.75311778  .00000180  00000-0  19807-4 0  9997
2 43017  97.7185 140.6210 0255984 210.3563 148.2614 14.78992283148227
FOX-1D (AO-92)          
1 43137U 18004AC  20230.86822137  .00000752  00000-0  33752-4 0  9993
2 43137  97.4423 301.6055 0008778 189.5633 170.5439 15.24222912144406
DIWATA-2B               
1 43678U 18084H   20230.85392926  .00000183  00000-0  23966-4 0  9992
2 43678  97.8903 349.2775 0009485 342.3148  17.7722 14.91646953 98173
ES'HAIL 2               
1 43700U 18090A   20230.78938403  .00000137  00000-0  00000-0 0  9992
2 43700   0.0128 100.7338 0001736  77.3141  98.5317  1.00271036  6323
FOX-1CLIFF (AO-95)      
1 43770U 18099N   20230.88415778  .00000550  00000-0  55386-4 0  9994
2 43770  97.7025 301.1838 0014330 358.6167   1.5011 14.95024220 93092
ITASAT 1                
1 43786U 18099AE  20230.73342346  .00000286  00000-0  31091-4 0  9998
2 43786  97.7038 301.4992 0014771 351.7456   8.3519 14.95355633 93094
JY1SAT (JO-97)          
1 43803U 18099AX  20230.67368481  .00000552  00000-0  54931-4 0  9993
2 43803  97.7000 301.2450 0014678 352.6065   7.4937 14.95539923 93081
PSAT2 (NO-104)          
1 44354U 19036R   20230.64137736  .00010292  00000-0  14727-3 0  9991
2 44354  28.5339 338.4977 0359755 244.9310 111.3530 15.04595081 63045
BRICSAT2 (NO-103)       
1 44355U 19036S   20230.61299540  .00018354  00000-0  25034-3 0  9991
2 44355  28.5336 326.5278 0334587 264.4044  91.8307 15.10983592 63164
JAISAT-1                
1 44419U 19038F   20230.87024424  .00000560  00000-0  35513-4 0  9993
2 44419  97.5433 191.7658 0019905 280.2297  79.6689 15.12867675 61882
DUCHIFAT-3              
1 44854U 19089C   20230.90643489  .00000242  00000-0  25939-4 0  9992
2 44854  36.9645  95.1648 0008254 210.7388 149.2866 14.99103784 37520
RS-44 & BREEZE-KM R/B   
1 44909U 19096E   20230.73244593  .00000021  00000-0  31223-4 0  9993
2 44909  82.5235 314.5998 0218471  83.3283 279.2630 12.79707627 30024
ORBITAL FACTORY 2 (OF-2)
1 45113U 19071C   20230.80936320  .00001352  00000-0  52520-4 0  9999
2 45113  51.6444  67.1150 0012302 278.9987  80.9603 15.33538719 30541
HUSKYSAT-1              
1 45119U 19071J   20230.84451876  .00000997  00000-0  41539-4 0  9999
2 45119  51.6443  66.5999 0011583 275.4004  84.5656 15.33741386 30546
